#dP2023  2 22  0  0  0.00000000      96 __u+U IGS14 FIT  IAC
## 2250 259200.00000000   900.00000000 59997 0.0000000000000
+  118   C06C07C08C09C10C11C12C13C14C16C19C20C21C22C23C24C25
+        C26C27C28C29C30C32C33C34C35C36C38C39C40C41C42C43C44
+        C45C46E01E02E03E04E05E07E08E09E10E11E12E14E15E18E19
+        E21E24E25E26E27E30E31E33E34E36G01G02G03G04G05G06G07
+        G08G09G10G11G12G13G14G15G16G17G18G19G20G21G22G23G24
+        G25G26G27G28G29G30G31G32J02J03J04R01R02R03R04R05R07
+        R08R09R11R12R13R14R15R16R17R18R19R20R21R22R24R25  0
++         9  9  9  9  9  9  9  9  9  9  8  8  8  8  8  8  8
++         8  8  7  8  8  8  8  8  8  7  8  8  8  8  8  8  8
++         8  7  4  4  4  4  4  4  4  4  4  4  4  4  4  5  4
++         4  4  4  4  5  4  5  4  5  4  4  4  3  3  4  3  4
++         4  3  4  3  3  3  3  4  4  3  4  3  4  4  3  4  3
++         3  3  4  3  3  4  3  3  9  9 10  8  7  7  7  7  7
++         7  7  7  6  8  7  7  7  7  7  8  8  6  6  6  8  0
%c M  cc GPS ccc cccc cccc cccc cccc ccccc ccccc ccccc ccccc
%c cc cc ccc ccc cccc cccc cccc cccc ccccc ccccc ccccc ccccc
%f  1.2500000  1.025000000  0.00000000000  0.000000000000000
%f  0.0000000  0.000000000  0.00000000000  0.000000000000000
%i    0    0    0    0      0      0      0      0         0
%i    0    0    0    0      0      0      0      0         0
/* INFORMATION & ANALYSIS CENTER (IAC)            FINAL DATA
/* S/V CLOCKS ARE ALIGNED TO GNSS TIME                      
/* G:C1WC2W R:C1PC2P E:C1XC5X C:C2IC6I J:C1CC2S             
/* PCV:IGS20_2247 OL/AL:FES2004  NONE     YN ORB:CoN CLK:CoN
*  2023 02 22  9 45  0.00000000
PC06  -1995.470674  31946.004201 -27294.360435   -192.065112
PC07 -15214.693624  27431.495654  28145.642017     77.571839
PC08 -14406.593260  39464.955673  -4539.068615    524.527423
PC09   5090.125723  35982.781583 -20519.506304    776.838883
PC10  -6929.255717  28061.532409  30872.182355      5.877355
PC11   9911.328328  22871.178471  12630.373024   -106.504341
PC12  -6563.634079  14878.106689  22717.879059    467.021020
PC13  -9907.466762  39987.059495  -9433.060342    213.748806
PC14   3107.571667  15485.448443 -22982.790601    509.357575
PC16  -2961.262373  30598.719157 -28509.173411    156.112074
PC19 -13576.719079 -11556.408103  21492.652127   -894.628288
PC20   6082.847050 -16771.523653  21482.817858    712.139931
PC21 -23612.726979  12200.689936  -8450.391357   -910.064553
PC22 -26376.667579    560.730766   9062.521413   -620.068416
PC23  16094.731226   2950.352805  22600.434170   -880.014001
PC24  -7024.601240  27018.600068    489.239681   -379.096377
PC25   7708.585395  20525.777234  17262.449431     76.236404
PC26 -15321.629734  18252.515581 -14567.708731    -82.329723
PC27  14001.125012  -8210.043366 -22717.399767    100.524448
PC28  22252.189106   8400.075049 -14589.419575     73.326330
PC29 -18319.527751 -20775.960348  -3427.654784     84.457681
PC30  -2436.104179 -20466.601474 -18831.257635      1.079024
PC32  23555.483498 -12390.269980   8426.160703   -615.665360
PC33  13594.338071  11513.762811 -21473.800724   -872.100039
PC34   3559.779441  20933.762149  18082.436206    111.678792
PC35 -22782.869416  -8617.245132  13648.788421    676.224971
PC36  -6779.603180 -21187.998476 -16827.251102   -608.586043
PC38 -18325.944752  37815.528564   4276.546337     60.472659
PC39  -7742.303422  26058.161674 -32136.759110     -1.911402
PC40 -21269.871459  21032.007496  29604.637428    -15.766513
PC41  26205.749127   -273.495388  -9536.693369   -641.972159
PC42  -7459.096744  16840.018513 -20910.274176   -823.112989
PC43  17767.915820  21088.715227   4175.843638      8.422568
PC44 -13974.164144   8591.051428  22568.224516     23.244357
PC45 -16104.280398  -2418.137681 -22670.683622    -63.640036
PC46   5853.154885 -27173.764992  -2208.154832    -35.170258
PE01  24080.764788 -15390.392429   7680.159298   -600.218599
PE02 -24021.461368  15720.629512  -7270.593518     22.306848
PE03 -23439.521145   5652.768611 -17166.730690   -652.505207
PE04   5167.723933 -16214.069060  24227.121275    -63.734122
PE05 -28354.489807  -8501.520980    181.590491    -92.931459
PE07  16518.424019  17496.268821 -17235.480016    -24.806745
PE08  -5276.316981  16027.745714 -24317.414795    -40.174463
PE09 -16384.826867 -17409.777064  17450.714766   -845.013961
PE10  -4420.797867 -28972.680925  -4160.763679   -514.201879
PE11 -10824.949685 -26795.621507   6446.472912    985.193287
PE12   2229.813441 -26495.568059 -13030.948695   -431.662801
PE14  12867.858196 -16087.575699 -23771.468656    149.309931
PE15  -2391.617688  26297.335063  13372.916877     -2.838256
PE18   3190.966382  17926.358214  18017.559545   -361.671636
PE19  25062.675534  -3620.338242  15330.600068  -3173.191605
PE21  20768.719260    266.111921  21078.030314   -513.611229
PE24  -4631.734809 -17666.720320 -23308.291060  -1128.030370
PE25 -20614.202939   -565.132856 -21240.650153   -599.910825
PE26  17102.611883  11193.929266 -21399.807021     25.758578
PE27   5405.760684  17104.005749  23543.411142   -518.383594
PE30 -13593.735897  23634.830794  11531.706768  -1262.807826
PE31  12963.257416 -23682.974331 -12123.469636   -516.713827
PE33  13644.089912  -9963.801691 -24299.805381   -451.299849
PE34 -13569.796343  10151.242490  24268.105015    -31.398692
PE36 -16927.995483 -12079.444999  21076.214944    -16.162954
PG01 -13796.879448   4669.417212  21870.730841    209.800591
PG02  12310.853156  -9694.383390 -20859.408575   -619.136656
PG03 -22337.732279  11506.752034   8304.999738   -360.011299
PG04 -22156.990936   2056.591643 -14577.827984    -22.072988
PG05  18084.204413   1782.927947 -19579.567465   -116.871338
PG06   5341.439014  25925.508182  -1343.167964    575.133300
PG07  -8301.751918  18865.439607 -16035.976911    236.306675
PG08 -25847.846853  -5996.605621   3515.320560   -109.687574
PG09 -13134.441475  10828.472676 -20473.678348   -213.549199
PG10   5487.116673 -19675.908098  16978.041955    -25.760239
PG11  12123.725583  19140.326533 -13877.516833   -111.052691
PG12  23052.741474  -8675.344849   9525.199458   -343.366256
PG13  22846.419614  13619.457619  -2094.230210    480.097759
PG14  -8589.490202  20260.058680  14784.004388    -21.120334
PG15  26265.285546   3099.614018   3257.313969     15.647439
PG16 -16486.352296  -5711.517096 -20454.346017   -518.918241
PG17    751.472768  16164.461309  21476.838025    701.580077
PG18   6019.814683 -21796.334827 -13813.607492   -151.123937
PG19  11986.872136  17690.614009  15718.365381    281.053785
PG20  10493.201254  11534.311953 -21478.651982    449.172554
PG21 -16488.842892  -4785.192896  21042.589948    154.124178
PG22 -14752.142976 -17504.814180  14048.532379    432.074500
PG23  15328.319893 -20348.644599   7245.602807      7.266255
PG24  15922.742204   -418.607583  20941.857288    -84.198723
PG25  20433.826127 -16678.454777   1013.894102    422.201894
PG26  -5621.657233 -15779.151944 -20660.631215    241.684053
PG27 -22250.664563 -13186.824803  -7175.151152     96.487540
PG28  -5206.234921 -26040.417110    599.967702     21.974758
PG29  16611.107848  -6998.828137 -19581.016336   -587.447684
PG30     30.887360  25761.153887  -5774.000837   -529.438253
PG31  -6563.925991 -25241.597781  -3652.444244   -209.911174
PG32  -4976.610511 -16759.220657  20220.256386   -403.714173
PJ02 -29897.616295  29777.023489   4718.006348     -0.962008
PJ03 -25501.246336  23524.828050  29048.413128      0.415264
PJ04 -32792.537729  23473.635421  -7464.364566     94.248331
PR01  25266.561293   -891.486672  -3428.020177     23.508613
PR02  19145.640815  -8195.832311  14728.704113    -23.231704
PR03   1892.753536 -11023.731208  22970.111653     72.968086
PR04 -15921.663084  -7543.030528  18484.425770    176.780509
PR05 -25221.965657   -170.352740   3912.202782    108.171180
PR07  -1134.277829  10958.421746 -22964.984753     50.428004
PR08  16125.173521   7444.106973 -18233.039680    -69.547978
PR09 -13569.303766  19748.255890  -8628.352780    105.472566
PR11   4196.756685  14321.981835  20687.733024     -7.968189
PR12  13368.091510  -4382.433889  21290.774164     25.193954
PR13  14016.098808 -18647.936495  10290.841753    -32.281927
PR14   6188.462181 -23190.296019  -8652.869034     24.381003
PR15  -4839.278994 -13471.495576 -21101.076127     90.907334
PR16 -13099.817764   4187.843256 -21474.395308     11.588446
PR17  -6049.342340 -20389.584225 -14049.119406    607.046297
PR18 -14796.003081 -20717.646281   2049.014992     68.079036
PR19 -15801.376178 -11862.858363  16137.690906   -222.781426
PR20  -7326.252071   7703.709052  23194.664886    -88.146992
PR21   7109.025553  20984.004942  12660.498345   -375.230110
PR22  14320.269924  20903.451873  -2825.008205     72.038992
PR24   7010.412338  -8805.878055 -22870.790756    148.663516
PR25   4718.032062  20661.624173  14213.524630     55.806600
EOF
